start=new Date('2022-04-18T00:00:00.000Z').valueOf();
sats=[{"TLE_LINE2":"2 51125  53.2173 202.0534 0001614  50.4975 210.4472 15.20287773  3651","CENTER_NAME":"EARTH","PERIOD":"94.719","COUNTRY_CODE":"US","MEAN_MOTION_DOT":"-0.00726069","REF_FRAME":"TEME","TIME_SYSTEM":"UTC","LAUNCH_DATE":"2022-01-19","APOAPSIS":"506.085","NORAD_CAT_ID":"51125","REV_AT_EPOCH":"365","SEMIMAJOR_AXIS":"6883.109","MEAN_MOTION":"15.20287773","BSTAR":"-0.03543300000000","CLASSIFICATION_TYPE":"U","SITE":"AFETR","RCS_SIZE":"LARGE","OBJECT_NAME":"STARLINK-3387","OBJECT_TYPE":"PAYLOAD","ARG_OF_PERICENTER":"50.4975","RA_OF_ASC_NODE":"202.0534","EPHEMERIS_TYPE":"0","TLE_LINE1":"1 51125U 22005X   22107.91667824 -.00726069  00000-0 -35433-1 0  9999","EPOCH":"2022-04-17T22:00:00.999936","PERIAPSIS":"503.863","MEAN_ANOMALY":"210.4472","MEAN_MOTION_DDOT":"0.0000000000000","ECCENTRICITY":"0.00016140","OBJECT_ID":"2022-005X","ELEMENT_SET_NO":"999","MEAN_ELEMENT_THEORY":"SGP4","INCLINATION":"53.2173","GP_ID":"201496987","DECAY_DATE":null,"FILE":"3405839"},{"PERIOD":"94.587","COUNTRY_CODE":"US","MEAN_MOTION_DOT":"-0.00724072","REF_FRAME":"TEME","TLE_LINE2":"2 51126  53.2174 202.0569 0001725  45.6684 112.8553 15.22407546  3656","CENTER_NAME":"EARTH","MEAN_MOTION":"15.22407546","BSTAR":"-0.03318600000000","LAUNCH_DATE":"2022-01-19","TIME_SYSTEM":"UTC","APOAPSIS":"499.769","NORAD_CAT_ID":"51126","REV_AT_EPOCH":"365","SEMIMAJOR_AXIS":"6876.718","RA_OF_ASC_NODE":"202.0569","ARG_OF_PERICENTER":"45.6684","OBJECT_TYPE":"PAYLOAD","EPHEMERIS_TYPE":"0","EPOCH":"2022-04-17T22:00:00.999936","TLE_LINE1":"1 51126U 22005Y   22107.91667824 -.00724072  00000-0 -33186-1 0  9995","CLASSIFICATION_TYPE":"U","SITE":"AFETR","RCS_SIZE":"LARGE","OBJECT_NAME":"STARLINK-3386","ELEMENT_SET_NO":"999","INCLINATION":"53.2174","MEAN_ELEMENT_THEORY":"SGP4","DECAY_DATE":null,"FILE":"3405839","GP_ID":"201497237","PERIAPSIS":"497.397","MEAN_ANOMALY":"112.8553","ECCENTRICITY":"0.00017250","MEAN_MOTION_DDOT":"0.0000000000000","OBJECT_ID":"2022-005Y"},{"SEMIMAJOR_AXIS":"6876.333","REV_AT_EPOCH":"365","TIME_SYSTEM":"UTC","LAUNCH_DATE":"2022-01-19","NORAD_CAT_ID":"51127","APOAPSIS":"499.380","BSTAR":"-0.03307500000000","MEAN_MOTION":"15.22535584","CENTER_NAME":"EARTH","TLE_LINE2":"2 51127  53.2174 202.0562 0001720  47.2373 127.1848 15.22535584  3658","MEAN_MOTION_DOT":"-0.00724377","REF_FRAME":"TEME","PERIOD":"94.579","COUNTRY_CODE":"US","ECCENTRICITY":"0.00017200","MEAN_MOTION_DDOT":"0.0000000000000","OBJECT_ID":"2022-005Z","PERIAPSIS":"497.015","MEAN_ANOMALY":"127.1848","INCLINATION":"53.2174","MEAN_ELEMENT_THEORY":"SGP4","FILE":"3405839","DECAY_DATE":null,"GP_ID":"201497497","ELEMENT_SET_NO":"999","RCS_SIZE":"LARGE","OBJECT_NAME":"STARLINK-3370","CLASSIFICATION_TYPE":"U","SITE":"AFETR","TLE_LINE1":"1 51127U 22005Z   22107.91667824 -.00724377  00000-0 -33075-1 0  9991","EPOCH":"2022-04-17T22:00:00.999936","RA_OF_ASC_NODE":"202.0562","ARG_OF_PERICENTER":"47.2373","OBJECT_TYPE":"PAYLOAD","EPHEMERIS_TYPE":"0"},{"MEAN_MOTION":"15.20791209","BSTAR":"-0.03494500000000","APOAPSIS":"504.586","NORAD_CAT_ID":"51128","TIME_SYSTEM":"UTC","LAUNCH_DATE":"2022-01-19","REV_AT_EPOCH":"365","SEMIMAJOR_AXIS":"6881.590","COUNTRY_CODE":"US","PERIOD":"94.688","REF_FRAME":"TEME","MEAN_MOTION_DOT":"-0.00726694","TLE_LINE2":"2 51128  53.2174 202.0546 0001644  42.5717 284.5203 15.20791209  3655","CENTER_NAME":"EARTH","ELEMENT_SET_NO":"999","GP_ID":"201498237","DECAY_DATE":null,"FILE":"3405839","MEAN_ELEMENT_THEORY":"SGP4","INCLINATION":"53.2174","MEAN_ANOMALY":"284.5203","PERIAPSIS":"502.323","OBJECT_ID":"2022-005AA","MEAN_MOTION_DDOT":"0.0000000000000","ECCENTRICITY":"0.00016440","EPHEMERIS_TYPE":"0","OBJECT_TYPE":"PAYLOAD","RA_OF_ASC_NODE":"202.0546","ARG_OF_PERICENTER":"42.5717","TLE_LINE1":"1 51128U 22005AA  22107.91667824 -.00726694  00000-0 -34945-1 0  9993","EPOCH":"2022-04-17T22:00:00.999936","SITE":"AFETR","CLASSIFICATION_TYPE":"U","OBJECT_NAME":"STARLINK-3400","RCS_SIZE":"LARGE"},{"EPHEMERIS_TYPE":"0","ARG_OF_PERICENTER":"49.9653","RA_OF_ASC_NODE":"201.8292","OBJECT_TYPE":"PAYLOAD","TLE_LINE1":"1 51129U 22005AB  22107.91667824 -.00725551  00000-0 -38538-1 0  9997","EPOCH":"2022-04-17T22:00:00.999936","SITE":"AFETR","CLASSIFICATION_TYPE":"U","OBJECT_NAME":"STARLINK-3396","RCS_SIZE":"LARGE","ELEMENT_SET_NO":"999","DECAY_DATE":null,"FILE":"3405839","GP_ID":"201496496","INCLINATION":"53.2174","MEAN_ELEMENT_THEORY":"SGP4","MEAN_ANOMALY":"214.4278","PERIAPSIS":"512.662","OBJECT_ID":"2022-005AB","ECCENTRICITY":"0.00016320","MEAN_MOTION_DDOT":"0.0000000000000","COUNTRY_CODE":"US","PERIOD":"94.901","REF_FRAME":"TEME","MEAN_MOTION_DOT":"-0.00725551","TLE_LINE2":"2 51129  53.2174 201.8292 0001632  49.9653 214.4278 15.17372816  3646","CENTER_NAME":"EARTH","MEAN_MOTION":"15.17372816","BSTAR":"-0.03853800000000","APOAPSIS":"514.911","NORAD_CAT_ID":"51129","TIME_SYSTEM":"UTC","LAUNCH_DATE":"2022-01-19","REV_AT_EPOCH":"364","SEMIMAJOR_AXIS":"6891.921"},{"OBJECT_NAME":"STARLINK-3395","RCS_SIZE":"LARGE","SITE":"AFETR","CLASSIFICATION_TYPE":"U","TLE_LINE1":"1 51130U 22005AC  22107.91667824 -.00726387  00000-0 -35317-1 0  9999","EPOCH":"2022-04-17T22:00:00.999936","EPHEMERIS_TYPE":"0","OBJECT_TYPE":"PAYLOAD","RA_OF_ASC_NODE":"202.0540","ARG_OF_PERICENTER":"50.5195","OBJECT_ID":"2022-005AC","MEAN_MOTION_DDOT":"0.0000000000000","ECCENTRICITY":"0.00015710","MEAN_ANOMALY":"226.9612","PERIAPSIS":"503.506","GP_ID":"201496746","FILE":"3405839","DECAY_DATE":null,"MEAN_ELEMENT_THEORY":"SGP4","INCLINATION":"53.2173","ELEMENT_SET_NO":"999","CENTER_NAME":"EARTH","TLE_LINE2":"2 51130  53.2173 202.0540 0001571  50.5195 226.9612 15.20415798  3659","REF_FRAME":"TEME","MEAN_MOTION_DOT":"-0.00726387","COUNTRY_CODE":"US","PERIOD":"94.711","REV_AT_EPOCH":"365","SEMIMAJOR_AXIS":"6882.722","NORAD_CAT_ID":"51130","APOAPSIS":"505.669","LAUNCH_DATE":"2022-01-19","TIME_SYSTEM":"UTC","BSTAR":"-0.03531700000000","MEAN_MOTION":"15.20415798"},{"INCLINATION":"53.2174","MEAN_ELEMENT_THEORY":"SGP4","FILE":"3405839","DECAY_DATE":null,"GP_ID":"201497989","ELEMENT_SET_NO":"999","ECCENTRICITY":"0.00015600","MEAN_MOTION_DDOT":"0.0000000000000","OBJECT_ID":"2022-005AD","PERIAPSIS":"502.755","MEAN_ANOMALY":"262.2729","TLE_LINE1":"1 51131U 22005AD  22107.91667824 -.00726599  00000-0 -35068-1 0  9998","EPOCH":"2022-04-17T22:00:00.999936","RA_OF_ASC_NODE":"202.0545","ARG_OF_PERICENTER":"48.2802","OBJECT_TYPE":"PAYLOAD","EPHEMERIS_TYPE":"0","RCS_SIZE":"LARGE","OBJECT_NAME":"STARLINK-3388","CLASSIFICATION_TYPE":"U","SITE":"AFETR","BSTAR":"-0.03506800000000","MEAN_MOTION":"15.20667452","SEMIMAJOR_AXIS":"6881.963","REV_AT_EPOCH":"365","TIME_SYSTEM":"UTC","LAUNCH_DATE":"2022-01-19","NORAD_CAT_ID":"51131","APOAPSIS":"504.902","MEAN_MOTION_DOT":"-0.00726599","REF_FRAME":"TEME","PERIOD":"94.695","COUNTRY_CODE":"US","CENTER_NAME":"EARTH","TLE_LINE2":"2 51131  53.2174 202.0545 0001560  48.2802 262.2729 15.20667452  3651"},{"MEAN_MOTION_DOT":"-0.00726600","REF_FRAME":"TEME","PERIOD":"94.703","COUNTRY_CODE":"US","CENTER_NAME":"EARTH","TLE_LINE2":"2 51132  53.2173 202.0542 0001562  49.9511 244.1416 15.20539602  3652","BSTAR":"-0.03520000000000","MEAN_MOTION":"15.20539602","REV_AT_EPOCH":"365","SEMIMAJOR_AXIS":"6882.349","TIME_SYSTEM":"UTC","LAUNCH_DATE":"2022-01-19","NORAD_CAT_ID":"51132","APOAPSIS":"505.289","EPOCH":"2022-04-17T22:00:00.999936","TLE_LINE1":"1 51132U 22005AE  22107.91667824 -.00726600  00000-0 -35200-1 0  9990","ARG_OF_PERICENTER":"49.9511","RA_OF_ASC_NODE":"202.0542","OBJECT_TYPE":"PAYLOAD","EPHEMERIS_TYPE":"0","RCS_SIZE":"LARGE","OBJECT_NAME":"STARLINK-3393","CLASSIFICATION_TYPE":"U","SITE":"AFETR","INCLINATION":"53.2173","MEAN_ELEMENT_THEORY":"SGP4","DECAY_DATE":null,"FILE":"3405839","GP_ID":"201497746","ELEMENT_SET_NO":"999","ECCENTRICITY":"0.00015620","MEAN_MOTION_DDOT":"0.0000000000000","OBJECT_ID":"2022-005AE","PERIAPSIS":"503.139","MEAN_ANOMALY":"244.1416"},{"NORAD_CAT_ID":"51133","APOAPSIS":"504.606","TIME_SYSTEM":"UTC","LAUNCH_DATE":"2022-01-19","SEMIMAJOR_AXIS":"6881.226","REV_AT_EPOCH":"365","MEAN_MOTION":"15.20911786","BSTAR":"-0.03416700000000","TLE_LINE2":"2 51133  53.2174 202.0548 0002201 250.2793  93.1999 15.20911786  3655","CENTER_NAME":"EARTH","COUNTRY_CODE":"US","PERIOD":"94.680","REF_FRAME":"TEME","MEAN_MOTION_DOT":"-0.00714005","MEAN_ANOMALY":"93.1999","PERIAPSIS":"501.576","OBJECT_ID":"2022-005AF","MEAN_MOTION_DDOT":"0.0000000000000","ECCENTRICITY":"0.00022010","ELEMENT_SET_NO":"999","GP_ID":"201496988","FILE":"3405839","DECAY_DATE":null,"MEAN_ELEMENT_THEORY":"SGP4","INCLINATION":"53.2174","SITE":"AFETR","CLASSIFICATION_TYPE":"U","OBJECT_NAME":"STARLINK-3356","RCS_SIZE":"LARGE","EPHEMERIS_TYPE":"0","OBJECT_TYPE":"PAYLOAD","RA_OF_ASC_NODE":"202.0548","ARG_OF_PERICENTER":"250.2793","TLE_LINE1":"1 51133U 22005AF  22107.91667824 -.00714005  00000-0 -34167-1 0  9998","EPOCH":"2022-04-17T22:00:00.999936"},{"MEAN_MOTION_DOT":"-0.00368827","REF_FRAME":"TEME","PERIOD":"93.150","COUNTRY_CODE":"US","CENTER_NAME":"EARTH","TLE_LINE2":"2 51134  53.2164 197.0911 0001879  30.0981 353.5986 15.45896610  3648","BSTAR":"-0.00781870000000","MEAN_MOTION":"15.45896610","SEMIMAJOR_AXIS":"6806.882","REV_AT_EPOCH":"364","TIME_SYSTEM":"UTC","LAUNCH_DATE":"2022-01-19","NORAD_CAT_ID":"51134","APOAPSIS":"430.026","TLE_LINE1":"1 51134U 22005AG  22107.91667824 -.00368827  00000-0 -78187-2 0  9997","EPOCH":"2022-04-17T22:00:00.999936","RA_OF_ASC_NODE":"197.0911","ARG_OF_PERICENTER":"30.0981","OBJECT_TYPE":"PAYLOAD","EPHEMERIS_TYPE":"0","RCS_SIZE":"LARGE","OBJECT_NAME":"STARLINK-3183","CLASSIFICATION_TYPE":"U","SITE":"AFETR","INCLINATION":"53.2164","MEAN_ELEMENT_THEORY":"SGP4","FILE":"3405839","DECAY_DATE":null,"GP_ID":"201497238","ELEMENT_SET_NO":"999","ECCENTRICITY":"0.00018790","MEAN_MOTION_DDOT":"0.0000000000000","OBJECT_ID":"2022-005AG","PERIAPSIS":"427.468","MEAN_ANOMALY":"353.5986"}];
